#aV2018 12 26  0  0  0.00000000     288 DD+AD WGS84 FIT  NGA
## 2033 259200.00000000   300.00000000 58478 0.0000000000000
+   31     1  2  3  5  6  7  8  9 10 11 12 13 14 15 16 17 18
+         19 20 21 22 23 24 25 26 27 28 29 30 31 32  0  0  0
+          0  0  0  0  0  0  0  0  0  0  0  0  0  0  0  0  0
+          0  0  0  0  0  0  0  0  0  0  0  0  0  0  0  0  0
+          0  0  0  0  0  0  0  0  0  0  0  0  0  0  0  0  0
++         2  2  2  2  2  2  2  2  2  2  2  2  2  2  2  2  2
++         2  2  2  2  2  2  2  2  2  2  2  2  2  2  0  0  0
++         0  0  0  0  0  0  0  0  0  0  0  0  0  0  0  0  0
++         0  0  0  0  0  0  0  0  0  0  0  0  0  0  0  0  0
++         0  0  0  0  0  0  0  0  0  0  0  0  0  0  0  0  0
%c cc cc ccc ccc cccc cccc cccc cccc ccccc ccccc ccccc ccccc
%c cc cc ccc ccc cccc cccc cccc cccc ccccc ccccc ccccc ccccc
%f  0.0000000  0.000000000  0.00000000000  0.000000000000000
%f  0.0000000  0.000000000  0.00000000000  0.000000000000000
%i    0    0    0    0      0      0      0      0         0
%i    0    0    0    0      0      0      0      0         0
/*      NGA, ST. LOUIS,MO.                                  
/*   EPHEMERIS COMPUTED FROM 2 DAYS OF DATA                 
/*   EPOCHA v3 SMOOTHER                                     
/*   G1762 IERS2010 SATAF SATAPC                            
*  2018 12 26 13 30  0.00000000
P  1  -9792.009897  20196.206703 -14124.951572   -135.005294                    
V  1 -15075.701177   9570.155287  24723.103945     -0.060740                    
P  2  21406.889345 -14233.864262  -5636.996323    -96.178125                    
V  2  -3681.679001   7764.474072 -30613.764325     -0.102453                    
P  3   -246.627960  15843.841954 -21363.760843    172.662864                    
V  3 -25434.098083  -9139.905408  -6428.265377      0.029420                    
P  5  20140.745603  -5383.628752  16449.692822      0.564158                    
V  5  19206.024761   8886.866642 -20257.176650      0.001695                    
P  6  20567.862835  -2224.391032 -16632.892696    309.156493                    
V  6 -15374.338649  14611.857991 -20895.578151     -0.071859                    
P  7   5060.984769  15183.372328  21369.680541     63.437818                    
V  7 -21436.373708  15879.186269  -6732.067947     -0.070061                    
P  8  -7396.640892  20079.758746  15667.994262   -126.901401                    
V  8  -5257.967402 -19236.652726  22414.980581     -0.012882                    
P  9   7847.349269  24898.249855   4829.612376    479.039316                    
V  9  -1918.488746   6630.436082 -30767.266204     -0.041951                    
P 10 -24044.813269 -11184.060621   2818.363210    145.822682                    
V 10   4195.622327  -1187.453846  31395.685853     -0.058210                    
P 11  -8054.006036  25081.628541  -4761.058872   -683.773361                    
V 11  -6052.191444   3076.619416  29613.785562      0.048888                    
P 12   4219.489454 -14280.801629 -22199.492086    281.447072                    
V 12  25151.768769  11437.661152  -2424.770249     -0.030229                    
P 13  12670.151009 -13208.917148  19117.059672    -80.371477                    
V 13   2234.567922  24449.645599  15348.377161      0.012100                    
P 14 -15177.243388  -3958.367928 -21155.890811    -94.105184                    
V 14  -1738.424598 -27498.180449   6129.498478      0.005422                    
P 15   4253.889820 -22478.307664  12901.464964   -334.770505                    
V 15   7509.157910  15658.173435  24725.877545      0.014896                    
P 16 -20491.832662   2505.222887  16789.565184     -8.912444                    
V 16 -18808.904995 -10292.598167 -20797.206484     -0.022565                    
P 17  13324.674468  14344.311542 -17590.594521    -13.383461                    
V 17   1174.449822  23070.757143  19154.603867      0.052113                    
P 18 -16684.350404  19985.260635  -5315.505373      9.464859                    
V 18  -6647.020204   1847.126835  30704.114231      0.039005                    
P 19  14924.858903   3712.153348 -21931.815950   -369.926459                    
V 19   1256.304195  27084.414813   5618.946356      0.039250                    
P 20 -19066.443148 -14069.727957  12009.177291    520.404268                    
V 20  15737.046246    815.475121  25556.048325      0.004483                    
P 21  -8617.155168 -13543.927507  21973.730638   -280.497044                    
V 21  19452.477931 -17355.374025  -3103.845643      0.067911                    
P 22  -8692.773217  13684.102817 -20802.183213   -607.948837                    
V 22 -25706.759774  -8581.146969   5084.553130     -0.090630                    
P 23   1247.119951  25852.985126  -4575.266173   -202.418936                    
V 23  -4747.679017  -5524.041520 -30888.411992      0.011214                    
P 24  12927.400024 -20989.484073  -9594.115886    -60.002932                    
V 24  11253.218261  -5608.919945  28162.672184     -0.005187                    
P 25  -8309.820401 -17018.128609 -18916.720889   -696.811560                    
V 25  22324.218178   7422.722560 -16406.383834     -0.054984                    
P 26 -25123.645655  -2517.915452   8501.815827     78.648207                    
V 26  -9252.670732  -6125.723130 -28965.514362      0.107249                    
P 27 -12508.006686  10431.558553  20835.686273    -38.453602                    
V 27  -5170.413264 -26174.149096  10229.082998     -0.061321                    
P 28  21884.067149  14320.448179   4983.725116    759.884281                    
V 28  -5867.187456   -599.827866  31492.768306      0.012883                    
P 29  -3997.312411 -26163.682400   2194.394408    307.139820                    
V 29   1763.948725  -2987.712267 -32121.024634     -0.082853                    
P 30  15307.123891   7223.708234  20520.697035    -25.822806                    
V 30 -20387.735535  16240.403736   9328.106703     -0.059584                    
P 31 -22158.717596   4409.735985 -14297.196203     70.161529                    
V 31  13181.816955 -12396.512469 -23796.915383     -0.026275                    
P 32 -15214.557178 -11335.433095 -18590.378756   -302.464976                    
V 32  -2478.113624 -23578.084635  16271.724615      0.161760                    
EOF
